[{"OBJECT_NAME":"IRIDIUM 123","OBJECT_ID":"2017-039B","EPOCH":"2026-03-09T22:21:18.884448","MEAN_MOTION":14.34218976,"ECCENTRICITY":0.00019684,"INCLINATION":86.3973,"RA_OF_ASC_NODE":35.1027,"ARG_OF_PERICENTER":83.6618,"MEAN_ANOMALY":276.4802,"EPHEMERIS_TYPE":0,"CLASSIFICATION_TYPE":"U","NORAD_CAT_ID":42804,"ELEMENT_SET_NO":999,"REV_AT_EPOCH":45572,"BSTAR":0.00013835042,"MEAN_MOTION_DOT":4.07e-6,"MEAN_MOTION_DDOT":0},{"OBJECT_NAME":"SL-8 R\/B","OBJECT_ID":"1991-041B","EPOCH":"2026-03-09T21:42:21.965760","MEAN_MOTION":14.35240137,"ECCENTRICITY":0.00391599,"INCLINATION":74.0382,"RA_OF_ASC_NODE":225.5353,"ARG_OF_PERICENTER":94.6662,"MEAN_ANOMALY":265.8965,"EPHEMERIS_TYPE":0,"CLASSIFICATION_TYPE":"U","NORAD_CAT_ID":21419,"ELEMENT_SET_NO":999,"REV_AT_EPOCH":81714,"BSTAR":0.00015058642,"MEAN_MOTION_DOT":4.09e-6,"MEAN_MOTION_DDOT":0}]
